X,Y,OBJECTID,PROPNAME,ADDRESS,DIVISION,ADA,GIS_EDT_DT,LATITUDE,LONGITUDE,POINT_X,POINT_Y,PMAID,LOCID,AMWO_ID,RES1,RES2,GLOBALID,GIS_CREATOR,GIS_CRT_DT,GIS_EDITOR,SDQL,zipcode
1251850.24982446,214775.000037313,945,Alki Playground,5817 SW Lander St,South,Yes,2023/11/20 21:00:38+00,47.57789918,-122.4077309,1251850.24997623,214775.00000103,446.0,1049.0,PLAY-ALKIPG,,,{0831A243-2D12-4C3C-8AB6-FAE790BEDB02},SeattleParks_SeattleCityGIS,2023/11/20 21:00:38+00,SeattleParks_SeattleCityGIS,QL-D3,98116
1266925.24985814,242845.29691498,946,B.F. Day Playground,4020 Fremont Ave N,North,Yes,2023/11/20 21:00:38+00,47.65566774,-122.34890554,1266925.24999616,242845.29689154,241.0,2552.0,PLAY-DAYPG,,,{58308839-A7D1-4579-9009-863B6A090BD6},SeattleParks_SeattleCityGIS,2023/11/20 21:00:38+00,SeattleParks_SeattleCityGIS,QL-D3,98103
1256297.0001173,249252.812315136,947,Ballard Playground,2644 NW 60th St,North,Yes,2023/11/20 21:00:38+00,47.6726483,-122.39254848,1256296.99997817,249252.81247029,497.0,1108.0,PLAY-BLPG,,,{4AEE812B-E32D-4ED5-A723-06419CCB4DB7},SeattleParks_SeattleCityGIS,2023/11/20 21:00:38+00,SeattleParks_SeattleCityGIS,QL-D3,98017
1257478.25005139,238886.8123779,948,Bayview Playground,2614 24th Ave W,Central,Yes,2023/11/20 21:00:38+00,47.64430136,-122.38690553,1257478.2500287,238886.8124719,303.0,1110.0,PLAY-BVPG,,,{39D6D3B8-AC69-4D21-B64D-C36954379345},SeattleParks_SeattleCityGIS,2023/11/20 21:00:38+00,SeattleParks_SeattleCityGIS,QL-D3,98199
1263939.37492439,233138.296972066,949,Bayview-Kinnear Park,3rd Ave W / W Prospect St,Central,Yes,2023/11/20 21:00:38+00,47.62889952,-122.36023718,1263939.37499425,233138.29690589,342.0,2374.0,PLAY-KERPK,,,{27EA3F8F-120D-4160-85BC-3DA5BC8DEE5E},SeattleParks_SeattleCityGIS,2023/11/20 21:00:38+00,SeattleParks_SeattleCityGIS,QL-D3,98119
1274756.87494288,217465.937568814,950,Beacon Hill Playground,1902 13th Ave S,South,Yes,2023/11/20 21:00:38+00,47.5865218,-122.31515116,1274756.87499455,217465.93751612,400.0,1074.0,PLAY-BHPG,,,{73ED168D-B0FF-4CD6-A3F9-5BA1053C85ED},SeattleParks_SeattleCityGIS,2023/11/20 21:00:38+00,SeattleParks_SeattleCityGIS,QL-D3,98144
1281932.87502655,192522.624922723,951,Benefit Playground,9320 38th Ave S,South,Yes,2023/11/20 21:00:38+00,47.51852715,-122.28417232,1281932.8750207,192522.62497541,436.0,1077.0,PLAY-BNPG,,,{E16F7ADC-58EE-4206-94EA-806772353A01},SeattleParks_SeattleCityGIS,2023/11/20 21:00:38+00,SeattleParks_SeattleCityGIS,QL-D3,98118
1267018.25000022,233605.06244272,952,Bhy Kracke Park,1200 5th Ave N,Central,Yes,2023/11/20 21:00:38+00,47.63034568,-122.34779047,1267018.25002894,233605.06246616,304.0,1193.0,PLAY-BKPK,,,{F8896932-C3B0-4BDF-B02D-0C925E49A1F0},SeattleParks_SeattleCityGIS,2023/11/20 21:00:38+00,SeattleParks_SeattleCityGIS,QL-D3,98109
1267454.00011297,267553.062459975,953,Bitterlake Playfield,13030 North Park Ave N,North,Yes,2023/11/20 21:00:38+00,47.72341905,-122.34873454,1267454.00002097,267553.06251015,288.0,1113.0,PLAY-BTLKPF,,,{8CBB8325-109F-4BF5-AC5E-173BEEE5AA64},SeattleParks_SeattleCityGIS,2023/11/20 21:00:38+00,SeattleParks_SeattleCityGIS,QL-D3,98133
1282449.49997756,203474.578084394,954,Brighton Playfield,6000 39th Ave S,South,Yes,2023/11/20 21:00:38+00,47.5485732,-122.28291676,1282449.50001659,203474.57812381,402.0,1115.0,PLAY-BGTPF,,,{AE0F403D-AC7C-4A4C-A6C9-6984C5FE9B58},SeattleParks_SeattleCityGIS,2023/11/20 21:00:38+00,SeattleParks_SeattleCityGIS,QL-D3,98118
1283208.62509972,249662.281312481,955,Bryant Playground,4103 NE 65th St,North,Yes,2023/11/20 21:00:38+00,47.67521302,-122.28336719,1283208.62497702,249662.28125446,482.0,1082.0,PLAY-BRYPG,,,{2DD2F391-2E70-4D57-9FC0-421AC0B5B0A5},SeattleParks_SeattleCityGIS,2023/11/20 21:00:38+00,SeattleParks_SeattleCityGIS,QL-D3,98115
1278107.87513064,217644.827959061,956,Colman Playground,1740 23rd Ave S,South,Yes,2023/11/20 21:00:38+00,47.58718821,-122.30158854,1278107.87499961,217644.82809615,406.0,1121.0,PLAY-COLPG,,,{4CF04F46-7425-446C-8D4B-F2161D2AF8AA},SeattleParks_SeattleCityGIS,2023/11/20 21:00:38+00,SeattleParks_SeattleCityGIS,QL-D3,98144
1276048.2499848,248771.265706062,957,Cowen Park,5849 15th Ave NE,North,Yes,2023/11/20 21:00:38+00,47.6723972,-122.3123571,1276048.24999054,248771.26564968,483.0,1279.0,PLAY-COWPK,,,{3D61B408-60C0-4714-A060-67BB43053A0D},SeattleParks_SeattleCityGIS,2023/11/20 21:00:38+00,SeattleParks_SeattleCityGIS,QL-D3,98105
1279165.87498313,253015.03116864,958,Dahl Playfield,7700 25th Ave NE,North,Yes,2023/11/20 21:00:38+00,47.68419286,-122.30003355,1279165.8750069,253015.0312265,499.0,1819.0,PLAY-DAHLPF,,,{E94C69E3-DA98-40D4-8A1F-A99EE7BDD83A},SeattleParks_SeattleCityGIS,2023/11/20 21:00:38+00,SeattleParks_SeattleCityGIS,QL-D3,98115
1264411.12496513,238558.64079015,959,David Rodgers Park,2800 3rd Ave W,Central,Yes,2023/11/20 21:00:38+00,47.64378205,-122.35876007,1264411.12500887,238558.64065799,331.0,1289.0,PLAY-RODPK,,,{D6E61C35-6073-492A-85DA-7EA718E75655},SeattleParks_SeattleCityGIS,2023/11/20 21:00:38+00,SeattleParks_SeattleCityGIS,QL-D3,98119
1279578.24981456,205187.953266561,960,Dearborn Park,2919 S Brandon St,South,Yes,2023/11/20 21:00:38+00,47.5531207,-122.29467281,1279578.24996294,205187.95316289,408.0,1291.0,PLAY-DEARPK,,,{0B514FD9-B6C0-4AE8-B109-247CD2DC6D6F},SeattleParks_SeattleCityGIS,2023/11/20 21:00:38+00,SeattleParks_SeattleCityGIS,QL-D3,98108
1261113.12499948,198351.859327227,961,E.C. Hughes Playground,2805 SW Holden St,South,Yes,2023/11/20 21:00:38+00,47.53339754,-122.36888198,1261113.12496886,198351.85940924,458.0,2534.0,PLAY-ECHPG,,,{B5A6FC95-36ED-4DFB-85C2-6EF15FFC9758},SeattleParks_SeattleCityGIS,2023/11/20 21:00:38+00,SeattleParks_SeattleCityGIS,QL-D3,98106
1279573.12515289,222099.531319976,962,Flo Ware Park,28th Ave S / S Jackson St,Central,Yes,2023/11/20 21:00:38+00,47.59947501,-122.29599513,1279573.12503223,222099.53128618,363.0,1334.0,PLAY-FLWPK,,,{FC33A522-5ABB-418F-8494-CEF8E6EF5246},SeattleParks_SeattleCityGIS,2023/11/20 21:00:38+00,SeattleParks_SeattleCityGIS,QL-D3,98122
1275533.1250308,251766.874872312,963,Froula Playground,7112 12th Ave NE,North,Yes,2023/11/20 21:00:38+00,47.68058094,-122.31468158,1275533.12502119,251766.87497245,287.0,1128.0,PLAY-FRLPG,,,{74B43841-027A-4783-828A-CFCA53944A46},SeattleParks_SeattleCityGIS,2023/11/20 21:00:38+00,SeattleParks_SeattleCityGIS,QL-D3,98115
1278551.6248993,225118.531187475,964,Garfield Playfield,500 23rd Ave,Central,Yes,2023/11/20 21:00:38+00,47.60769677,-122.30036798,1278551.62500519,225118.53122784,353.0,1130.0,PLAY-GARPF,,,{FB59549F-01B2-4A53-A8E2-BFC85698414B},SeattleParks_SeattleCityGIS,2023/11/20 21:00:38+00,SeattleParks_SeattleCityGIS,QL-D3,98122
1272952.24994323,205028.718676895,965,Georgetown Playfield,750 S Homer St,South,Yes,2023/11/20 21:00:38+00,47.55233616,-122.32148798,1272952.24996641,205028.71875672,410.0,2094.0,PLAY-GTPF,,,{14E18519-B77A-4699-A9BE-6C20B5F8A244},SeattleParks_SeattleCityGIS,2023/11/20 21:00:38+00,SeattleParks_SeattleCityGIS,QL-D3,98108
1272341.62518021,251853.593858972,966,Green Lake Park,7201 East Green Lake Dr N,North,Yes,2023/11/20 21:00:38+00,47.68064949,-122.32764197,1272341.62502241,251853.59371612,307.0,1366.0,PLAY-GLKPK,,,{3DA7C81D-CA3B-4908-8971-0E4434C8C4D0},SeattleParks_SeattleCityGIS,2023/11/20 21:00:38+00,SeattleParks_SeattleCityGIS,QL-D3,98103
1257599.25013748,215046.140571147,967,Hiawatha Playfield,2700 California Ave SW,South,Yes,2023/11/20 21:00:38+00,47.57896239,-122.38446554,1257599.24999377,215046.14063895,456.0,1788.0,PLAY-HIPF,,,{626FDAA0-1C69-4D39-9E0A-3E74030E93FF},SeattleParks_SeattleCityGIS,2023/11/20 21:00:38+00,SeattleParks_SeattleCityGIS,QL-D3,98116
1265887.24996564,195898.98431173,968,Highland Park Playground,1100 SW Cloverdale St,South,Yes,2023/11/20 21:00:38+00,47.52693381,-122.34936415,1265887.24998435,195898.984341,457.0,1137.0,PLAY-HLPG,,,{6937AD8B-7913-42C8-A50D-782FF0885263},SeattleParks_SeattleCityGIS,2023/11/20 21:00:38+00,SeattleParks_SeattleCityGIS,QL-D3,98106
1287994.75004189,191065.562548146,969,Hutchinson Playground,5732 S Norfolk St,South,Yes,2023/11/20 21:00:38+00,47.51484395,-122.25953538,1287994.74997447,191065.56248844,439.0,1089.0,PLAY-HUTPG,,,{AD87B8CD-CCD0-45AD-AA34-0F2A1376E96A},SeattleParks_SeattleCityGIS,2023/11/20 21:00:38+00,SeattleParks_SeattleCityGIS,QL-D3,98178
1272811.74989614,221308.531261563,970,International Childrens Park,700 S Lane St,Central,Yes,2023/11/20 21:00:38+00,47.59695131,-122.32333318,1272811.74996352,221308.53124176,364.0,1413.0,PLAY-ICPK,,,{20659C8D-CAED-4142-9EB9-4F286F72D0B2},SeattleParks_SeattleCityGIS,2023/11/20 21:00:38+00,SeattleParks_SeattleCityGIS,QL-D3,98104
1284463.74988605,243953.234331638,971,Laurelhurst Playfield,4544 NE 41st St,North,Yes,2023/11/20 21:00:38+00,47.65962922,-122.27783844,1284463.75000997,243953.23440246,340.0,1142.0,PLAY-LAURPF,,,{4AD15CBE-FEE7-4495-9080-F26963BBDF84},SeattleParks_SeattleCityGIS,2023/11/20 21:00:38+00,SeattleParks_SeattleCityGIS,QL-D3,98105
1269588.62510881,258453.937613636,972,Licton Springs Park,9536 Ashworth Ave N,North,Yes,2023/11/20 21:00:38+00,47.69859366,-122.33934006,1269588.62497476,258453.93750943,286.0,1059.0,PLAY-LICSPK,,,{DCCBE762-8590-4FBA-943A-A45BEFC6085E},SeattleParks_SeattleCityGIS,2023/11/20 21:00:38+00,SeattleParks_SeattleCityGIS,QL-D3,98113
1258490.12499614,253595.812487394,973,Loyal Heights Playfield,2101 NW 77th St,North,Yes,2023/11/20 21:00:38+00,47.6846736,-122.38400376,1258490.12496868,253595.8124668,289.0,1146.0,PLAY-LOYLPF,,,{B6DC3B72-1711-4F26-9905-48219F296AB7},SeattleParks_SeattleCityGIS,2023/11/20 21:00:38+00,SeattleParks_SeattleCityGIS,QL-D3,98117
1284360.75009206,235080.921695724,974,Madison Park,1898 43rd Ave E,Central,Yes,2023/11/20 21:00:38+00,47.63530488,-122.2775807,1284360.74997944,235080.92184153,369.0,1071.0,PLAY-MADPK,,,{68750398-5A90-48B8-AD34-845502A9A726},SeattleParks_SeattleCityGIS,2023/11/20 21:00:38+00,SeattleParks_SeattleCityGIS,QL-D3,98112
1281215.87514822,226366.218652725,975,Madrona Playground,3211 E Spring St,Central,Yes,2023/11/20 21:00:38+00,47.61125539,-122.28966516,1281215.87500566,226366.21876678,371.0,1147.0,PLAY-MDRPG,,,{382C6BFA-A245-42AD-8FFE-290ADA7CA88A},SeattleParks_SeattleCityGIS,2023/11/20 21:00:38+00,SeattleParks_SeattleCityGIS,QL-D3,98122
1254637.50015548,234903.437470645,976,Magnolia Park,1461 Magnolia Blvd W,Central,Yes,2023/11/20 21:00:38+00,47.63322545,-122.39809868,1254637.50000274,234903.43748359,317.0,1478.0,PLAY-MGLPK,,,{E3D424EA-8EDA-4D77-B3D2-8F0577B81A5C},SeattleParks_SeattleCityGIS,2023/11/20 21:00:38+00,SeattleParks_SeattleCityGIS,QL-D3,98199
1265728.1249558,238326.95326139,977,Mayfair Park,2600 2nd Ave N,Central,Yes,2023/11/20 21:00:38+00,47.64321844,-122.35339993,1265728.1249655,238326.95315117,321.0,1530.0,PLAY-MAYFPK,,,{7A1F445B-838D-4414-8989-BF2E32543146},SeattleParks_SeattleCityGIS,2023/11/20 21:00:38+00,SeattleParks_SeattleCityGIS,QL-D3,98109
1281024.84337805,261172.978763476,978,Meadowbrook Playfield,10533 35th Ave NE,North,Yes,2023/11/20 21:00:38+00,47.70517102,-122.29113211,1281503.00001103,260624.12501326,352.0,1107.0,PLAY-MBPF,,,{C08E5673-8463-4EE1-9B01-2AD797A7F549},SeattleParks_SeattleCityGIS,2023/11/20 21:00:38+00,SeattleParks_SeattleCityGIS,QL-D3,98125
1272525.87481172,266708.562508553,979,Northacres Park,12530 3rd Ave NE,North,Yes,2023/11/20 21:00:38+00,47.72137623,-122.32806536,1272525.87496747,266708.56246628,361.0,2232.0,PLAY-NACPK,,,{7752DA0B-1F52-4A74-866D-1714045DB5F8},SeattleParks_SeattleCityGIS,2023/11/20 21:00:38+00,SeattleParks_SeattleCityGIS,QL-D3,98133
1283825.99984922,198991.75010781,980,Othello Playground,4351 S Othello St,South,Yes,2023/11/20 21:00:38+00,47.53635667,-122.27700345,1283826.00000203,198991.75003126,403.0,1933.0,PLAY-OTHPG,,,{AD085E23-30E4-477B-9873-E78806AA73DF},SeattleParks_SeattleCityGIS,2023/11/20 21:00:38+00,SeattleParks_SeattleCityGIS,QL-D3,98118
1280940.37504305,223190.218771145,981,Peppi Playground,3233 E Spruce St,Central,Yes,2023/11/20 21:00:38+00,47.60253568,-122.29053808,1280940.37499481,223190.21876068,378.0,2239.0,PLAY-PEPPG,,,{46EC7620-EFA8-4C54-AB99-02BD6BC2C023},SeattleParks_SeattleCityGIS,2023/11/20 21:00:38+00,SeattleParks_SeattleCityGIS,QL-D3,98122
1278905.75017531,228504.765556723,982,Plum Tree Park,1717 26th Ave,Central,Yes,2023/11/20 21:00:38+00,47.61699691,-122.29919413,1278905.75001849,228504.76562095,387.0,1951.0,PLAY-PLUMPK,,,{FA70DF16-67A8-416F-AAA2-B042D77E998D},SeattleParks_SeattleCityGIS,2023/11/20 21:00:38+00,SeattleParks_SeattleCityGIS,QL-D3,98122
1279627.12504488,223964.203115553,983,Powell Barnett Park,352 M.L. King Jr. Way,Central,Yes,2023/11/20 21:00:38+00,47.60458888,-122.29591993,1279627.12498936,223964.20312624,345.0,1953.0,PLAY-PBARPK,,,{5A8F2E07-1593-45E9-B44F-1C48E6B27E33},SeattleParks_SeattleCityGIS,2023/11/20 21:00:38+00,SeattleParks_SeattleCityGIS,QL-D3,98122
1276653.37508689,222673.109241053,984,Pratt Park,1800 S Main St,Central,Yes,2023/11/20 21:00:38+00,47.60089444,-122.30787185,1276653.37501638,222673.10939002,390.0,2404.0,PLAY-PRTPK,,,{80027B5C-DE17-4FEA-ACFC-18092253E13D},SeattleParks_SeattleCityGIS,2023/11/20 21:00:38+00,SeattleParks_SeattleCityGIS,QL-D3,98122
1284811.7501743,194754.906219304,985,Rainier Beach Playfield,8802 Rainier Ave S,South,Yes,2023/11/20 21:00:38+00,47.52479405,-122.27269276,1284811.75002369,194754.90625435,422.0,1160.0,PLAY-RBPF,,,{3CB76FCA-5CBF-4F66-AF26-8F7ABD145DDF},SeattleParks_SeattleCityGIS,2023/11/20 21:00:38+00,SeattleParks_SeattleCityGIS,QL-D3,98118
1281902.7500868,208612.499895141,986,Rainier Playfield,3700 S Alaska St,South,Yes,2023/11/20 21:00:38+00,47.56262801,-122.28552286,1281902.74998046,208612.49998836,423.0,1162.0,PLAY-RAPF,,,{23CC883E-E732-4BD1-8925-F83F6C55D353},SeattleParks_SeattleCityGIS,2023/11/20 21:00:38+00,SeattleParks_SeattleCityGIS,QL-D3,98118
1272708.75010213,238061.031221062,987,Rogers Playground,2516 Eastlake Ave E,Central,Yes,2023/11/20 21:00:38+00,47.64286402,-122.32506662,1272708.75000976,238061.03124841,380.0,1165.0,PLAY-ROGPG,,,{1D15CE1F-6A7B-4263-B1F4-B1EA5E409464},SeattleParks_SeattleCityGIS,2023/11/20 21:00:38+00,SeattleParks_SeattleCityGIS,QL-D3,98102
1263924.37495439,244557.687519059,988,Ross Playground,4320 4th Ave NW,North,Yes,2023/11/20 21:00:38+00,47.66019865,-122.36121739,1263924.375036,244557.68752143,248.0,1812.0,PLAY-ROSPG,,,{6F2ADBD0-2250-439F-AD5F-25E8EA1725F5},SeattleParks_SeattleCityGIS,2023/11/20 21:00:38+00,SeattleParks_SeattleCityGIS,QL-D3,98107
1259106.00007673,251621.921750143,989,Salmon Bay Park,2001 NW Canoe Pl,North,Yes,2023/11/20 21:00:38+00,47.6792973,-122.38134272,1259105.99996714,251621.92186895,249.0,1599.0,PLAY-SBPK,,,{360DAC50-D6E5-453E-98AF-D80113EE4FED},SeattleParks_SeattleCityGIS,2023/11/20 21:00:38+00,SeattleParks_SeattleCityGIS,QL-D3,98117
1273627.74367097,222770.068692803,990,Yesler Community Center,917 East Yesler Way,Central,Yes,2023/11/20 21:00:38+00,47.60100062,-122.320141,1273627.74359261,222770.06863003,4263.0,2373.0,PLAY-YESCCLGR,,,{A2C00056-98AE-4AA7-AC27-BC5209367755},SeattleParks_SeattleCityGIS,2023/11/20 21:00:38+00,SeattleParks_SeattleCityGIS,QL-D3,98104
1264760.99992156,257485.546833888,991,Sandel Playground,9053 1st Ave NW,North,Yes,2023/11/20 21:00:38+00,47.69567869,-122.35886295,1264761.00003657,257485.54691152,250.0,2493.0,PLAY-SANPG,,,{4DC934C9-6F99-4C20-B797-3E594817687A},SeattleParks_SeattleCityGIS,2023/11/20 21:00:38+00,SeattleParks_SeattleCityGIS,QL-D3,98113
1259512.74991938,257443.875001222,992,Soundview Playfield,1590 NW 90th St,North,Yes,2023/11/20 21:00:38+00,47.69527728,-122.38016688,1259512.75003479,257443.87502156,251.0,1175.0,PLAY-SVPF,,,{B8A22F4A-8492-4F97-9EB2-7D1161C58807},SeattleParks_SeattleCityGIS,2023/11/20 21:00:38+00,SeattleParks_SeattleCityGIS,QL-D3,98117
1261274.2500053,237443.406143978,993,Soundview Terrace Play Area,2500 11th Ave W,Central,Yes,2023/11/20 21:00:38+00,47.6405541,-122.37139235,1261274.2499719,237443.40628295,3987.0,1738.0,PLAY-SVTCST,,,{7B824F42-7822-491C-914F-78F4561CBA84},SeattleParks_SeattleCityGIS,2023/11/20 21:00:38+00,SeattleParks_SeattleCityGIS,QL-D3,98119
1277462.50010906,223371.296821058,994,Spruce Street Mini Park,160 21st Ave,Central,Yes,2023/11/20 21:00:38+00,47.60285061,-122.30464691,1277462.49996556,223371.296857,3117.0,2524.0,PLAY-SPRUCE,,,{A6CE8618-B457-4322-BC9B-99449BE38296},SeattleParks_SeattleCityGIS,2023/11/20 21:00:38+00,SeattleParks_SeattleCityGIS,QL-D3,98122
1274170.12480405,245831.328016385,995,University Playground,4745 9th Ave NE,North,Yes,2023/11/20 21:00:38+00,47.66423971,-122.31974831,1274170.12496746,245831.32810623,435.0,1180.0,PLAY-UPG,,,{B30DC55F-F03D-45A0-B211-E99655B4CA32},SeattleParks_SeattleCityGIS,2023/11/20 21:00:38+00,SeattleParks_SeattleCityGIS,QL-D3,98015
1254137.74984264,237920.375006303,996,W. Magnolia Playfield,2518 34th Ave W,Central,Yes,2023/11/20 21:00:38+00,47.64146676,-122.40037431,1254137.74997906,237920.37503272,319.0,2564.0,PLAY-WMGLPF,,,{DF6E7BCC-AC32-4C5B-A30B-595E2080B55E},SeattleParks_SeattleCityGIS,2023/11/20 21:00:38+00,SeattleParks_SeattleCityGIS,QL-D3,98199
1279689.99991913,218669.015543222,997,Sam Smith Park,I-90 West Portal,South,Yes,2023/11/20 21:00:38+00,47.59007807,-122.29525737,1279689.99998191,218669.01559715,4242.0,1600.0,PLAY-I90,,,{B8288395-3C85-4B48-9817-E48DBD593E69},SeattleParks_SeattleCityGIS,2023/11/20 21:00:38+00,SeattleParks_SeattleCityGIS,QL-D3,98144
1275569.87495731,226702.187468976,998,Spring Street Mini Park,15th Ave / E Spring St,Central,Yes,2023/11/20 21:00:38+00,47.61188108,-122.3125767,1275569.87501866,226702.18747923,381.0,2523.0,PLAY-SPRING,,,{B50493BF-B02D-4D89-83CD-E8C2928810EE},SeattleParks_SeattleCityGIS,2023/11/20 21:00:38+00,SeattleParks_SeattleCityGIS,QL-D3,98122
1283328.49985997,208693.421977386,999,Genesee Park and Playfield,4316 S Genesee St,South,Yes,2023/11/20 21:00:38+00,47.56292342,-122.27975527,1283328.49997976,208693.42189443,409.0,1786.0,PLAY-GENPK-PF,,,{E3C1EA20-4098-461B-8AD1-AC12F976EAE6},SeattleParks_SeattleCityGIS,2023/11/20 21:00:38+00,SeattleParks_SeattleCityGIS,QL-D3,98118
1283821.49985822,209589.749909148,1000,Genesee Park and Playfield,4420 S Genesee St,South,Yes,2023/11/20 21:00:38+00,47.56540565,-122.27782693,1283821.49999921,209589.74996203,409.0,1786.0,PLAY-GENPK,,,{83BE78BB-5D6C-4559-9D7F-8BFBE41B5B7A},SeattleParks_SeattleCityGIS,2023/11/20 21:00:38+00,SeattleParks_SeattleCityGIS,QL-D3,98118
1254742.68564063,198945.931301802,1001,Lincoln Park - North,8011 Fauntleroy Way SW,South,Yes,2023/11/20 21:00:38+00,47.53462223,-122.39473742,1254736.37501788,198927.00002474,460.0,1060.0,PLAY-LINPK-N,,,{DBB4DDDD-9C5F-429F-97BE-01E52AFA7A3B},SeattleParks_SeattleCityGIS,2023/11/20 21:00:38+00,SeattleParks_SeattleCityGIS,QL-D3,98136
1260249.95120089,263963.182500646,1002,Carkeek Park,950 NW Carkeek Park Rd,North,Yes,2023/11/20 21:00:38+00,47.71308135,-122.37769879,1260250.75003742,263924.68748027,240.0,1227.0,PLAY-CKPK,,,{2D09765D-640C-4206-80A0-D0BAA626A5BE},SeattleParks_SeattleCityGIS,2023/11/20 21:00:38+00,SeattleParks_SeattleCityGIS,QL-D3,98177
1275523.03876489,234080.078224972,1003,Volunteer Park,1247 15th Ave E,Central,Yes,2023/11/20 21:00:38+00,47.6319611,-122.31312395,1275575.75000103,234027.92187148,399.0,1669.0,PLAY-VOLPK,,,{930CD942-F502-493C-AD56-895D5797602E},SeattleParks_SeattleCityGIS,2023/11/20 21:00:38+00,SeattleParks_SeattleCityGIS,QL-D3,98102
1260797.3749748,255553.062509894,1004,Baker Park on Crown Hill,Mary Ave NW / NW 83rd St,North,Yes,2023/11/20 21:00:38+00,47.69016536,-122.3747977,1260797.37502655,255553.06252676,2840.0,1911.0,PLAY-BAKCH,,,{B63EAB7B-E20B-4BA5-A4BC-397D651A9A37},SeattleParks_SeattleCityGIS,2023/11/20 21:00:38+00,SeattleParks_SeattleCityGIS,QL-D3,98117
1289451.37212864,251962.631370559,1005,Warren G. Magnuson Park,6500 Sand Point Way NE,North,Yes,2023/11/20 21:00:38+00,47.68172825,-122.25338279,1290638.12503435,251900.67187332,398.0,2394.0,PLAY-MGSPK,,,{232CAB1F-94CF-45A3-8527-1C6759307AB1},SeattleParks_SeattleCityGIS,2023/11/20 21:00:38+00,SeattleParks_SeattleCityGIS,QL-D3,98115
1279256.00013097,236728.343925804,1006,Montlake Totlot,26th Ave E / E Lynn St.,Central,Yes,2023/11/20 21:00:38+00,47.63955595,-122.29840901,1279256.00003362,236728.343767,393.0,1740.0,PLAY-ARB,,,{D9BF760A-ED85-47BB-9166-E25CAE3FE6FB},SeattleParks_SeattleCityGIS,2023/11/20 21:00:38+00,SeattleParks_SeattleCityGIS,QL-D3,98112
1273850.86330347,261036.420309559,1007,Northgate Park,10548 5th Ave NE,North,Yes,2023/11/20 21:00:38+00,47.7058995,-122.32223749,1273850.86334644,261036.42028928,4425.0,1792.0,PLAY-NGCC,,,{B6F5130E-23CA-45BB-84C4-F461BC4AC82C},SeattleParks_SeattleCityGIS,2023/11/20 21:00:38+00,SeattleParks_SeattleCityGIS,QL-D3,98125
1254740.52193105,196240.204101726,1008,Lincoln Park - South,8011 Fauntleroy Way SW,South,Yes,2023/11/20 21:00:38+00,47.52715889,-122.3947795,1254670.74998949,196205.40626919,460.0,1060.0,PLAY-LINPK-S,,,{0D119CAD-5D3E-46B4-AD53-6FF077207F36},SeattleParks_SeattleCityGIS,2023/11/20 21:00:38+00,SeattleParks_SeattleCityGIS,QL-D3,98136
1254673.52764247,195882.04340072,1009,Lincoln Park - Beach,8011 Fauntleroy Way SW,South,Yes,2023/11/20 21:00:38+00,47.52634541,-122.39477284,1254666.37503366,195908.70315574,460.0,1060.0,PLAY-LINPK-B,,,{665B1F3A-B279-4B0C-813A-10BEE2D157A0},SeattleParks_SeattleCityGIS,2023/11/20 21:00:38+00,SeattleParks_SeattleCityGIS,QL-D3,98136
1281465.76703689,200138.091319054,1010,"John C. Little, Sr. Park",6961 37th Ave S,South,Yes,2023/11/20 21:00:38+00,47.53937701,-122.28664431,1281465.76702052,200138.09147608,429.0,2560.0,PLAY-37MPK,,,{C4436F41-6B7C-4933-B383-00AB35AF13C1},SeattleParks_SeattleCityGIS,2023/11/20 21:00:38+00,SeattleParks_SeattleCityGIS,QL-D3,98118
1263427.69582964,203415.139554977,1011,Puget Ridge Playground,21st Ave SW / Croft Pl SW,South,Yes,2023/11/20 21:00:38+00,47.54740197,-122.35992085,1263427.69568738,203415.13950542,4201.0,1039.0,PLAY-PUGRID,,,{65A9F508-97FC-4AB6-81ED-A4651D105708},SeattleParks_SeattleCityGIS,2023/11/20 21:00:38+00,SeattleParks_SeattleCityGIS,QL-D3,98106
1259611.24841006,249788.545823723,1012,Ballard Corners Park,17th Ave NW / NW 62nd St,North,Yes,2023/11/20 21:00:38+00,47.67429999,-122.37914262,1259611.24845047,249788.54570544,4428.0,1914.0,PLAY-BLCRNPK,,,{BA40048D-850C-4756-BB8A-04CB5F3DDC5D},SeattleParks_SeattleCityGIS,2023/11/20 21:00:38+00,SeattleParks_SeattleCityGIS,QL-D3,98127
1277484.63687581,222152.692630976,1013,Dr. Blanche Lavizzo Park,2100 S Jackson St,Central,Yes,2023/11/20 21:00:38+00,47.59951159,-122.30446278,1277484.63681375,222152.69276063,395.0,2496.0,PLAY-LAVPK,,,{11AA1D60-1F33-4FFF-AD3D-A052AB176A42},SeattleParks_SeattleCityGIS,2023/11/20 21:00:38+00,SeattleParks_SeattleCityGIS,QL-D3,98122
1255344.36160263,208788.492981479,1014,Ercolini Park,48th Ave SW / SW Alaska St,South,Yes,2023/11/20 21:00:38+00,47.56168567,-122.39308576,1255344.3615395,208788.49291723,4454.0,1316.0,PLAY-ERCO,,,{33305DF9-48A1-4495-BD1F-7B95859C803C},SeattleParks_SeattleCityGIS,2023/11/20 21:00:38+00,SeattleParks_SeattleCityGIS,QL-D3,98116
1278469.46299013,228691.444645315,1015,Homer Harris Park,2401 E Howell St,Central,Yes,2023/11/20 21:00:38+00,47.6174858,-122.3009772,1278469.46291548,228691.4446556,4426.0,1392.0,PLAY-HOMHARPK,,,{0D1A9671-C1D2-4DC9-ACA6-BD813E62D3F1},SeattleParks_SeattleCityGIS,2023/11/20 21:00:38+00,SeattleParks_SeattleCityGIS,QL-D3,98122
1279548.38537297,217670.541490316,1016,Bradner Gardens Park,29th Ave S / S Grand St,South,Yes,2023/11/20 21:00:38+00,47.58733388,-122.29575427,1279548.3853797,217670.54164134,401.0,1203.0,PLAY-BRDPK,,,{2DAF8316-9F8A-46F4-9B93-4ED19CF8EBF4},SeattleParks_SeattleCityGIS,2023/11/20 21:00:38+00,SeattleParks_SeattleCityGIS,QL-D3,98144
1282398.9557873,268285.492425561,1017,Cedar Park,3737 NE 135th St,North,Yes,2023/11/20 21:00:38+00,47.72621721,-122.28808204,1282398.95577791,268285.49258673,4167.0,1237.0,PLAY-CEDARPK,,,{0EB97C64-54B4-4D75-B570-86B5FD24E159},SeattleParks_SeattleCityGIS,2023/11/20 21:00:38+00,SeattleParks_SeattleCityGIS,QL-D3,98165
1277165.72576822,218445.294862062,1018,Atlantic Street Park,S Atlantic St / 21st Ave S,South,Yes,2023/11/20 21:00:38+00,47.58933294,-122.30546772,1277165.72569276,218445.29494225,4243.0,2541.0,PLAY-ATLSPK,,,{DA854D65-732A-4BD5-815D-4C63C2653920},SeattleParks_SeattleCityGIS,2023/11/20 21:00:38+00,SeattleParks_SeattleCityGIS,QL-D3,98144
1258484.25000788,206009.0001809,1019,Fairmount Playground,5400 Fauntleroy Way SW,South,Yes,2023/11/20 21:00:38+00,47.554241,-122.38014468,1258484.24998631,206009.00002602,452.0,1127.0,PLAY-FMPG,,,{55323EF6-620D-48D0-9305-DA5656C3058D},SeattleParks_SeattleCityGIS,2023/11/20 21:00:38+00,SeattleParks_SeattleCityGIS,QL-D3,98126
1279137.01053956,200151.697919145,1020,Van Asselt Playground,7200 Beacon Ave S,South,Yes,2023/11/20 21:00:38+00,47.53929336,-122.2960717,1279137.01041576,200151.69795489,431.0,1181.0,PLAY-VACC,,,{82E41171-8A3E-4F36-9F0B-13AED53AD578},SeattleParks_SeattleCityGIS,2023/11/20 21:00:38+00,SeattleParks_SeattleCityGIS,QL-D3,98108
1266804.5972123,256566.335417733,1021,Greenwood Park,8905 Fremont Ave N,North,Yes,2023/11/20 21:00:38+00,47.69326993,-122.35049252,1266804.59707679,256566.33539842,4408.0,1369.0,PLAY-GRWDPK,,,{D75F7952-E270-42A8-935F-73B4E5D146E2},SeattleParks_SeattleCityGIS,2023/11/20 21:00:38+00,SeattleParks_SeattleCityGIS,QL-D3,98113
1260894.06244548,193496.906438723,1022,Roxhill Park,2850 SW Roxbury St,South,Yes,2023/11/20 21:00:38+00,47.5200784,-122.36937634,1260894.06252539,193496.90629211,464.0,1595.0,PLAY-ROXPK,,,{446D76BE-978E-4891-88B2-44F355C876CA},SeattleParks_SeattleCityGIS,2023/11/20 21:00:38+00,SeattleParks_SeattleCityGIS,QL-D3,98106
1276119.7833063,211589.754767388,1023,Jefferson Park,3801 Beacon Ave S,South,Yes,2023/11/20 21:00:38+00,47.57048707,-122.30917279,1276119.78323969,211589.7548849,114.0,1434.0,PLAY-JEFFPK,,,{4EFC1310-0524-47BF-9304-27FE13FCB77B},SeattleParks_SeattleCityGIS,2023/11/20 21:00:38+00,SeattleParks_SeattleCityGIS,QL-D3,98144
1268701.0678288,229597.656087473,1024,Denny Park,100 Dexter Ave N,Central,Yes,2023/11/20 21:00:38+00,47.61945211,-122.34064861,1268701.0678519,229597.65619466,309.0,1297.0,PLAY-DENPK,,,{CCC4E36C-7246-496E-8AAE-23E4D9D8686E},SeattleParks_SeattleCityGIS,2023/11/20 21:00:38+00,SeattleParks_SeattleCityGIS,QL-D3,98121
1279781.12998623,266223.463741228,1025,Albert Davis Park,12526 27th Ave NE,North,Yes,2023/11/20 21:00:38+00,47.72042908,-122.2985571,1279781.13014385,266223.46358959,244.0,1886.0,PLAY-DAVPK,,,{0A2A1216-80FF-46FA-8EF4-E73749AF72AB},SeattleParks_SeattleCityGIS,2023/11/20 21:00:38+00,SeattleParks_SeattleCityGIS,QL-D3,98165
1259004.51930855,201022.524589553,1026,Mrytle Reservoir Park,SW Myrtle St / 35th Ave SW,South,Yes,2023/11/20 21:00:38+00,47.54060202,-122.37763297,1259004.51946096,201022.52457359,4463.0,1548.0,PLAY-MYRES,,,{A97F224D-4A84-4402-BCDD-6BA4D8210B78},SeattleParks_SeattleCityGIS,2023/11/20 21:00:38+00,SeattleParks_SeattleCityGIS,QL-D3,98126
1262596.87498473,237271.812327057,1027,Coe Play Park,2420 7th Ave W,Central,Yes,2023/11/20 21:00:38+00,47.64015611,-122.36601445,1262596.87497044,237271.81249028,3985.0,1261.0,PLAY-COEPLAY,,,{18C44132-2DC8-4B02-97BD-692850F1FA1E},SeattleParks_SeattleCityGIS,2023/11/20 21:00:38+00,SeattleParks_SeattleCityGIS,QL-D3,98119
1277953.12511206,250305.281338811,1028,Ravenna-Eckstein CC Grounds,6535 Ravenna Ave NE,North,Yes,2023/11/20 21:00:38+00,47.67670201,-122.30474586,1277953.12501335,250305.28124011,488.0,1576.0,PLAY-REPK,,,{8DD9EC80-A80D-4AF0-B64B-E833AC0B3B41},SeattleParks_SeattleCityGIS,2023/11/20 21:00:38+00,SeattleParks_SeattleCityGIS,QL-D3,98115
1284076.62500414,251300.078233719,1029,Viewridge Playfield,4408 NE 70th St,North,Yes,2023/11/20 21:00:38+00,47.679747,-122.27996947,1284076.62502714,251300.07809286,444.0,1876.0,PLAY-VRPF,,,{B466BA67-EF36-46BC-A84F-99367E63729B},SeattleParks_SeattleCityGIS,2023/11/20 21:00:38+00,SeattleParks_SeattleCityGIS,QL-D3,98115
1255029.25002813,251169.656250477,1030,Webster Playground,3014 NW 67th St,North,Yes,2023/11/20 21:00:38+00,47.67783168,-122.39785127,1255029.25003539,251169.65623249,3894.0,1045.0,PLAY-WEBPG,,,{798AD2B6-5BFE-4817-B7C7-5847C4D22392},SeattleParks_SeattleCityGIS,2023/11/20 21:00:38+00,SeattleParks_SeattleCityGIS,QL-D3,98017
1261291.38251697,258023.74031131,1031,Crown Hill Park,,North,Yes,2023/11/20 21:00:38+00,47.69696443,-122.37299298,1261291.38256086,258023.7403253,4469.0,1282.0,PLAY-CRH,,,{1A29983E-AFF6-4BF7-9610-0A894F4DEA4F},SeattleParks_SeattleCityGIS,2023/11/20 21:00:38+00,SeattleParks_SeattleCityGIS,QL-D3,98117
1258369.49990931,205709.031292647,1032,Fairmount Playground - School,5400 Fauntleroy Way SW,South,Yes,2023/11/20 21:00:38+00,47.55341248,-122.38058487,1258369.49999104,205709.03125939,452.0,1127.0,PLAY-FMPG-S,,,{ABD7B97D-4547-49D2-9093-7F7886452F3F},SeattleParks_SeattleCityGIS,2023/11/20 21:00:38+00,SeattleParks_SeattleCityGIS,QL-D3,98126
1270644.49996555,239127.031385645,1033,Gas Works Park,2101 N Northlake Way,North,No,2023/11/20 21:00:38+00,47.64567589,-122.33352313,1270644.50002764,239127.03126925,293.0,1349.0,PLAY-GWPK,,,{9538260D-88E8-426E-92F0-766438DB0263},SeattleParks_SeattleCityGIS,2023/11/20 21:00:38+00,SeattleParks_SeattleCityGIS,QL-D3,98015
1262225.25007181,232806.718895063,1034,Kinnear Park,899 W Olympic Place,Central,No,2023/11/20 21:00:38+00,47.62789724,-122.36716063,1262225.24998027,232806.71873216,314.0,1442.0,PLAY-KINPK,,,{1AC86C2A-C13E-41AB-84F1-1D558B7B68B9},SeattleParks_SeattleCityGIS,2023/11/20 21:00:38+00,SeattleParks_SeattleCityGIS,QL-D3,98119
1291231.00013106,189390.093786225,1035,Lakeridge Park and Playground,10145 Rainier Ave S,South,No,2023/11/20 21:00:38+00,47.5104151,-122.2463172,1291230.99998426,189390.09372847,3972.0,1140.0,PLAY-LKRPG,,,{2BFF5856-5111-4D3C-B9D6-F72688BF7A56},SeattleParks_SeattleCityGIS,2023/11/20 21:00:38+00,SeattleParks_SeattleCityGIS,QL-D3,98178
1285790.50018531,207273.953031555,1036,Lakewood Playground,5013 S Angeline St,South,No,2023/11/20 21:00:38+00,47.55915905,-122.26967771,1285790.50002389,207273.95310749,414.0,2167.0,PLAY-LKWPG,,,{593BCD3D-191E-45A5-97C2-5D98D8DD8C96},SeattleParks_SeattleCityGIS,2023/11/20 21:00:38+00,SeattleParks_SeattleCityGIS,QL-D3,98118
1256573.24989289,243094.1563254,1037,Lawton Park,3843 26th Ave W,Central,No,2023/11/20 21:00:38+00,47.65578323,-122.39092153,1256573.24996391,243094.15621322,316.0,1054.0,PLAY-LWTPK,,,{3DB90798-9D2D-4759-BC07-9AD65895E3B0},SeattleParks_SeattleCityGIS,2023/11/20 21:00:38+00,SeattleParks_SeattleCityGIS,QL-D3,98199
1281803.12495798,222556.265642732,1038,Leschi Park,201 Lakeside Ave S,Central,No,2023/11/20 21:00:38+00,47.60084275,-122.28699306,1281803.12499043,222556.26560614,367.0,1057.0,PLAY-LSPK,,,{CB208225-7181-4C82-9B4A-C12C434B0B4E},SeattleParks_SeattleCityGIS,2023/11/20 21:00:38+00,SeattleParks_SeattleCityGIS,QL-D3,98122
1271095.0000488,245939.078128979,1039,Meridian Playground,4649 Sunnyside Ave N,North,No,2023/11/20 21:00:38+00,47.66437154,-122.33223411,1271095.00003746,245939.0781568,1104.0,1149.0,PLAY-MERDPG,,,{3FFD5190-DC6F-46C7-856B-7367F255C883},SeattleParks_SeattleCityGIS,2023/11/20 21:00:38+00,SeattleParks_SeattleCityGIS,QL-D3,98015
1284587.49996664,236587.34387973,1040,Madison Park - North Beach,2200 43rd Ave E,Central,No,2023/11/20 21:00:38+00,47.63944565,-122.27677576,1284587.50001088,236587.34372968,4441.0,2509.0,PLAY-MADPKNB,,,{C6AEBE3B-4758-44E8-B39C-66B373BC5C1D},SeattleParks_SeattleCityGIS,2023/11/20 21:00:38+00,SeattleParks_SeattleCityGIS,QL-D3,98112
1282871.7501173,225381.562485561,1041,Madrona Park -Beach,853 Lake Washington Blvd S,Central,No,2023/11/20 21:00:38+00,47.60864215,-122.28287804,1282871.75000015,225381.56246489,370.0,1473.0,PLAY-MDRPK,,,{998513AD-D2A5-49A1-95AD-B5422D3E1B8C},SeattleParks_SeattleCityGIS,2023/11/20 21:00:38+00,SeattleParks_SeattleCityGIS,QL-D3,98122
1274982.0001488,254982.078087553,1042,Maple Leaf Playground,1020 NE 82nd St,North,No,2023/11/20 21:00:38+00,47.68936462,-122.31717012,1274982.00002924,254982.07809244,3881.0,1105.0,PLAY-MLPG,,,{700A6AF1-5583-4233-9BF7-920BD67D0D1B},SeattleParks_SeattleCityGIS,2023/11/20 21:00:38+00,SeattleParks_SeattleCityGIS,QL-D3,98115
1276549.74996606,237561.750067398,1043,Montlake Playfield,1618 E Calhoun St,Central,No,2023/11/20 21:00:38+00,47.64169853,-122.30944928,1276549.74998119,237561.7500166,376.0,1152.0,PLAY-MTLKPF,,,{CD68B70D-8D89-4609-9ECF-49D628EDE5D7},SeattleParks_SeattleCityGIS,2023/11/20 21:00:38+00,SeattleParks_SeattleCityGIS,QL-D3,98102
1278384.87490472,230642.781293809,1044,Prentis Frazier Park,401 24th Ave E,Central,No,2023/11/20 21:00:38+00,47.62282997,-122.30147104,1278384.875037,230642.7812749,357.0,2438.0,PLAY-PFPK,,,{1BD7EC1E-5111-43F2-9B3F-28EA0F228CEC},SeattleParks_SeattleCityGIS,2023/11/20 21:00:38+00,SeattleParks_SeattleCityGIS,QL-D3,98112
1265828.25008364,200404.890654221,1045,Riverview Playfield,7226 12th Ave SW,South,No,2023/11/20 21:00:38+00,47.53928113,-122.34996231,1265828.24998997,200404.89062686,463.0,2269.0,PLAY-RVPF,,,{DEA94AA3-0313-41BA-A641-38E2F00B5D4B},SeattleParks_SeattleCityGIS,2023/11/20 21:00:38+00,SeattleParks_SeattleCityGIS,QL-D3,98106
1272024.2501588,196289.312599316,1046,South Park Playground,738 S Sullivan St,South,No,2023/11/20 21:00:38+00,47.52833239,-122.32455951,1272024.2500066,196289.31249189,467.0,1177.0,PLAY-SPKPG,,,{014123DF-4A41-4372-9E0E-05B5CFB05515},SeattleParks_SeattleCityGIS,2023/11/20 21:00:38+00,SeattleParks_SeattleCityGIS,QL-D3,98108
1267174.92225905,235341.857853636,1047,Trolley Hill Park,5th Ave N / Blaine St,Central,No,2023/11/20 21:00:38+00,47.63511461,-122.34729375,1267174.9223152,235341.85775468,4421.0,1654.0,PLAY-TROLHLPK,,,{37F61D18-5CCE-4B1C-9F27-9844C04BDB04},SeattleParks_SeattleCityGIS,2023/11/20 21:00:38+00,SeattleParks_SeattleCityGIS,QL-D3,98109
1277384.87493622,261008.281258225,1048,Victory Heights Playground,1737 NE 106th St,North,No,2023/11/20 21:00:38+00,47.7060089,-122.30788451,1277384.87503198,261008.28126237,438.0,1875.0,PLAY-VHPG,,,{7DD174BB-8EC0-4DB2-91A3-D3D5292C8717},SeattleParks_SeattleCityGIS,2023/11/20 21:00:38+00,SeattleParks_SeattleCityGIS,QL-D3,98125
1274109.48975472,228623.432314143,1049,Cal Anderson Park,1635 11th Ave,Central,Yes,2023/11/20 21:00:38+00,47.61707006,-122.31864658,1274109.48961329,228623.43229671,3102.0,1211.0,PLAY-CALANDPK,,,{A4936E9C-244C-4BE4-B1F6-4699F955579D},SeattleParks_SeattleCityGIS,2023/11/20 21:00:38+00,SeattleParks_SeattleCityGIS,QL-D3,98191
1279478.00001505,265378.249880478,1050,Virgil Flaim Park,2750 NE 125th St,North,No,2023/11/20 21:00:38+00,47.71809653,-122.29972296,1279477.99996826,265378.25003327,4002.0,1668.0,PLAY-LKCPG,,,{2424A995-7550-46F5-9DDD-B38518612CDE},SeattleParks_SeattleCityGIS,2023/11/20 21:00:38+00,SeattleParks_SeattleCityGIS,QL-D3,98125
1267675.89927547,270356.526669309,1051,Bitter Lake Open Space Park,Linden Ave N & N 143rd St,North,Yes,2023/11/20 21:00:38+00,47.73111517,-122.34805734,1267675.89939603,270356.52673264,4450.0,1194.0,PLAY-BTLKRSVR,,,{6D234142-DAA0-41A7-92BB-7B2DCB2BAD98},SeattleParks_SeattleCityGIS,2023/11/20 21:00:38+00,SeattleParks_SeattleCityGIS,QL-D3,98133
1274189.75009289,219453.000195727,1052,Dr. Jose Rizal Park,1008 12th Ave S,South,Yes,2023/11/20 21:00:38+00,47.59193834,-122.31760413,1274189.7499755,219453.00003722,433.0,2490.0,PLAY-RIZPK,,,{AD917B1D-B238-4943-8411-C5C50040F0B0},SeattleParks_SeattleCityGIS,2023/11/20 21:00:38+00,SeattleParks_SeattleCityGIS,QL-D3,98104
1256343.20212464,237609.818540812,1053,Ella Bailey Park,2601 W Smith St,Central,Yes,2023/11/20 21:00:38+00,47.6407383,-122.39140427,1256343.20203882,237609.81849377,318.0,1311.0,PLAY-EMGLPG,,,{17E1C401-7748-4BFD-9084-93DA516A6B33},SeattleParks_SeattleCityGIS,2023/11/20 21:00:38+00,SeattleParks_SeattleCityGIS,QL-D3,98199
1259737.75012556,200779.328225553,1054,Walt Hundley Playfield,6920 34th Ave SW,South,Yes,2023/11/20 21:00:38+00,47.53997573,-122.37464527,1259737.75002249,200779.32813798,3941.0,1748.0,PLAY-HPPF,,,{C64C2261-D64B-472C-AA5D-C036DD85B775},SeattleParks_SeattleCityGIS,2023/11/20 21:00:38+00,SeattleParks_SeattleCityGIS,QL-D3,98126
1262407.77792197,251875.310679063,1055,Kirke Park,7028 9th Avenue NW,North,Yes,2023/11/20 21:00:38+00,47.68017311,-122.36796255,1262407.77805363,251875.31051695,4468.0,1444.0,PLAY-KIRKEPK,,,{4136C85C-1BF2-44D9-B320-3282AA00B693},SeattleParks_SeattleCityGIS,2023/11/20 21:00:38+00,SeattleParks_SeattleCityGIS,QL-D3,98117
1261056.58016506,196237.765458316,1056,Southwest Community Center,2801 SW Thistle St,South,Yes,2023/11/20 21:00:38+00,47.52759983,-122.36894008,1261056.58031701,196237.76542088,3996.0,2310.0,PLAY-SWCCGR,,,{BA1849CC-B9FE-4EF2-92D1-CFEF5127CA4B},SeattleParks_SeattleCityGIS,2023/11/20 21:00:38+00,SeattleParks_SeattleCityGIS,QL-D3,98126
1276073.62493405,227146.702984139,1057,TT Minor Playground,17th Ave / E Union St,Central,Yes,2023/11/20 21:00:38+00,47.61312601,-122.31056938,1276073.62501073,227146.70311935,3913.0,2591.0,PLAY-MINPG,,,{FCBBCC44-9B53-493F-A096-4F201CD83D8E},SeattleParks_SeattleCityGIS,2023/11/20 21:00:38+00,SeattleParks_SeattleCityGIS,QL-D3,98122
1265916.37490739,248574.906190649,1058,Woodland Park,5420 Phinney Ave N,North,Yes,2023/11/20 21:00:38+00,47.67131777,-122.35345754,1265916.37503248,248574.90625857,200.0,9909.0,PLAY-WWLPG,,,{1E7CAEB7-2B07-42E0-9EAE-C01ADAD96AAD},SeattleParks_SeattleCityGIS,2023/11/20 21:00:38+00,SeattleParks_SeattleCityGIS,QL-D3,98103
1270698.62518539,230366.500022233,1059,Cascade Playground,333 Pontius Ave N,Central,Yes,2023/11/20 21:00:38+00,47.62166645,-122.33261125,1270698.62503175,230366.49996984,350.0,1117.0,PLAY-CASPG,,,{CE871647-51D3-4A84-9CF4-D1E364F5C8CB},SeattleParks_SeattleCityGIS,2023/11/20 21:00:38+00,SeattleParks_SeattleCityGIS,QL-D3,98191
1285651.12513597,257531.421742141,1060,Matthews Beach Park,9300 51st Ave NE,North,Yes,2023/11/20 21:00:38+00,47.69690808,-122.2740525,1285651.12498333,257531.42188488,347.0,1529.0,PLAY-MTWBPK,,,{25C8FD5E-B2A7-4177-A684-6A5FFAAFE0FD},SeattleParks_SeattleCityGIS,2023/11/20 21:00:38+00,SeattleParks_SeattleCityGIS,QL-D3,98115
1273902.12501197,238546.187402979,1061,Roanoke Park,950 E Roanoke St,Central,Yes,2023/11/20 21:00:38+00,47.64425713,-122.32026451,1273902.12501247,238546.18746707,379.0,1591.0,PLAY-ROPK,,,{07530976-15C6-426A-B7E1-40A530C20609},SeattleParks_SeattleCityGIS,2023/11/20 21:00:38+00,SeattleParks_SeattleCityGIS,QL-D3,98102
1263901.74999964,235601.390471056,1062,W. Queen Anne Playfield,150 W. Blaine St,Central,Yes,2023/11/20 21:00:38+00,47.63564869,-122.36058796,1263901.74997489,235601.39059302,330.0,2561.0,PLAY-WQAPF,,,{437339E3-F591-4478-AD24-CF6CDFA39D04},SeattleParks_SeattleCityGIS,2023/11/20 21:00:38+00,SeattleParks_SeattleCityGIS,QL-D3,98119
1252001.3748503,215290.859241813,1063,Alki Playground - Whales Tail,5817 SW Lander St,South,Yes,2023/11/20 21:00:38+00,47.57932158,-122.40716148,1252001.37498152,215290.85936236,446.0,1049.0,PLAY-ALKIPG-WT,,,{59DC78D5-2796-42ED-9378-02E324774E8D},SeattleParks_SeattleCityGIS,2023/11/20 21:00:38+00,SeattleParks_SeattleCityGIS,QL-D3,98116
1276530.00000556,225425.89080897,1064,Firehouse Mini Park,712 18th Ave,Central,Yes,2023/11/20 21:00:38+00,47.60843329,-122.30858572,1276530.00000291,225425.89066303,351.0,1331.0,PLAY-FHMPK,,,{7E8E6AF5-899A-4B6F-8472-6C67232BCF33},SeattleParks_SeattleCityGIS,2023/11/20 21:00:38+00,SeattleParks_SeattleCityGIS,QL-D3,98122
1281170.74991038,214431.328152478,1065,Mt. Baker Park,2521 Lake Park Drive S,South,Yes,2023/11/20 21:00:38+00,47.57853952,-122.28893294,1281170.7500072,214431.32811768,419.0,2537.0,PLAY-MTBPK,,,{03E29050-C953-426C-97A3-284DBE3DD30A},SeattleParks_SeattleCityGIS,2023/11/20 21:00:38+00,SeattleParks_SeattleCityGIS,QL-D3,98144
1266599.47524722,232706.590814471,1066,Ward Springs Park,925 4th Ave N,Central,Yes,2023/11/20 21:00:38+00,47.62786041,-122.34941674,1266599.47533841,232706.59094423,763.0,1684.0,PLAY-WARDSPPK,,,{A5E6B99B-714F-4400-8683-FB7530B37833},SeattleParks_SeattleCityGIS,2023/11/20 21:00:38+00,SeattleParks_SeattleCityGIS,QL-D3,98109
1263507.02867623,253366.06327498,1067,6th Ave NW Pocket Park,6th Ave NW / NW 76th St,North,Yes,2023/11/20 21:00:38+00,47.68431917,-122.36362135,1263507.02859856,253366.0632267,3158.0,2378.0,PLAY-6NWPPK,,,{5455CD0C-3C6B-406A-BCBE-A7E24009C978},SeattleParks_SeattleCityGIS,2023/11/20 21:00:38+00,SeattleParks_SeattleCityGIS,QL-D3,98113
1286976.00011089,194675.531378061,1074,Beer Sheva Park,8650 55th Ave S,South,Yes,2023/11/20 21:00:38+00,47.52468711,-122.26392871,1286975.99998328,194675.53127703,440.0,1925.0,PLAY-BSPK,,,{070EEA0E-D6C7-4730-A41D-F1E1EBCCD882},SeattleParks_SeattleCityGIS,2023/11/20 21:00:38+00,SeattleParks_SeattleCityGIS,QL-D3,98118
1283509.87515339,246778.17192322,1075,Burke Gilman Park,5201 Sand Point Way NE,North,Yes,2023/11/20 21:00:38+00,47.66732323,-122.28192425,1283509.87499553,246778.17185666,496.0,1083.0,PLAY-BGPK,,,{CEB5C4FC-685E-4ABD-84FB-CED9407D12C5},SeattleParks_SeattleCityGIS,2023/11/20 21:00:38+00,SeattleParks_SeattleCityGIS,QL-D3,98105
1262497.49985538,209402.656123221,1076,Delridge Playfield,4458 Delridge Way SW,South,Yes,2023/11/20 21:00:38+00,47.56376281,-122.36416885,1262497.49999762,209402.65625346,450.0,1124.0,PLAY-DELPF,,,{C1996AE4-28EE-492D-9E96-D672DCFC5A27},SeattleParks_SeattleCityGIS,2023/11/20 21:00:38+00,SeattleParks_SeattleCityGIS,QL-D3,98126
1262006.25018172,247048.265543148,1077,Gilman Playground,923 NW 54th St,North,Yes,2023/11/20 21:00:38+00,47.66692051,-122.36920117,1262006.25002193,247048.26560026,242.0,1134.0,PLAY-GILPG,,,{4164133E-2AE7-492B-A45B-4D4D8FA33A02},SeattleParks_SeattleCityGIS,2023/11/20 21:00:38+00,SeattleParks_SeattleCityGIS,QL-D3,98107
1277571.8748903,219640.375149056,1078,Judkins Park and Playfield,2150 S Norman St,Central,Yes,2023/11/20 21:00:38+00,47.59262993,-122.30391467,1277571.87501289,219640.37500556,397.0,1097.0,PLAY-JKPK,,,{580316B7-83AF-4F3D-980B-14A261C551E7},SeattleParks_SeattleCityGIS,2023/11/20 21:00:38+00,SeattleParks_SeattleCityGIS,QL-D3,98144
1273922.87497047,208074.640734643,1079,Maplewood Playfield,4801 Corson Ave S,South,Yes,2023/11/20 21:00:38+00,47.56073636,-122.31779604,1273922.87498285,208074.64064732,418.0,1106.0,PLAY-MWPF,,,{0F8F1A38-6627-44B3-8166-450AFE6BC227},SeattleParks_SeattleCityGIS,2023/11/20 21:00:38+00,SeattleParks_SeattleCityGIS,QL-D3,98108
1275894.49996422,264780.468923807,1080,Pinehurst Playground,12029 14th Ave NE,North,Yes,2023/11/20 21:00:38+00,47.71626992,-122.31423138,1275894.49999639,264780.46877377,382.0,1157.0,PLAY-PNHPG,,,{ED9D8168-ECAF-4A7E-8AE9-54C594DAE0E8},SeattleParks_SeattleCityGIS,2023/11/20 21:00:38+00,SeattleParks_SeattleCityGIS,QL-D3,98125
1278347.99997847,247524.265575394,1081,Ravenna Park,5520 Ravenna Ave NE,North,Yes,2023/11/20 21:00:38+00,47.66909998,-122.30292771,1278347.99999253,247524.2656005,391.0,1570.0,PLAY-RAVPK,,,{0D0EC57C-F3FB-43CB-BECD-BBE522D0683A},SeattleParks_SeattleCityGIS,2023/11/20 21:00:38+00,SeattleParks_SeattleCityGIS,QL-D3,98105
1289026.74994639,203690.062561557,1082,Seward Park,5898 Lake Washington Bv S,South,Yes,2023/11/20 21:00:38+00,47.54950036,-122.25630454,1289026.75003369,203690.06248853,428.0,1611.0,PLAY-SEWPK,,,{327128FC-97F2-45CF-B20D-77120EE2EC25},SeattleParks_SeattleCityGIS,2023/11/20 21:00:38+00,SeattleParks_SeattleCityGIS,QL-D3,98118
1269882.24984963,243984.234269649,1083,Wallingford Playfield,4219 Wallingford Ave N,North,Yes,2023/11/20 21:00:38+00,47.65894853,-122.33699984,1269882.24996714,243984.2343878,449.0,2336.0,PLAY-WLFPF,,,{7F649F6E-AB6C-42E5-913B-6F238BB96EFA},SeattleParks_SeattleCityGIS,2023/11/20 21:00:38+00,SeattleParks_SeattleCityGIS,QL-D3,98015
1253111.37492689,243270.140553474,1084,Discovery Park,3801 W Government Way,Central,Yes,2023/11/20 21:00:38+00,47.65607264,-122.40498007,1253111.37496176,243270.14062139,310.0,1301.0,PLAY-DP,,,{3B975F29-0684-4A58-8406-4E767D3FBDC5},SeattleParks_SeattleCityGIS,2023/11/20 21:00:38+00,SeattleParks_SeattleCityGIS,QL-D3,98199
1282415.1250463,208093.781444386,1085,Rainier Community Center,4600 38th Ave S,South,Yes,2023/11/20 21:00:38+00,47.56123268,-122.28340835,1282415.12499075,208093.78128061,409.0,1786.0,PLAY-RACC,,,{C801AC16-3C39-4B01-84B3-F40EB39A9ACC},SeattleParks_SeattleCityGIS,2023/11/20 21:00:38+00,SeattleParks_SeattleCityGIS,QL-D3,98118
1262195.91942181,206216.387889475,1086,Cottage Grove Park,5206 26th Ave SW,South,Yes,2023/11/20 21:00:38+00,47.55501296,-122.36513327,1262195.91936073,206216.38788603,4158.0,2405.0,PLAY-PUGBL,,,{0E9E4AC9-A58B-447D-8556-39DEC50C404C},SeattleParks_SeattleCityGIS,2023/11/20 21:00:38+00,SeattleParks_SeattleCityGIS,QL-D3,98126
1267365.29162897,194031.078926817,1087,Westcrest Park,9000 8th Ave SW,South,Yes,2023/11/20 21:00:38+00,47.52189361,-122.3432345,1267365.29165612,194031.07908824,468.0,1701.0,PLAY-WCPK,,,{954CCF72-9B5C-4D2A-AB10-4C702913006D},SeattleParks_SeattleCityGIS,2023/11/20 21:00:38+00,SeattleParks_SeattleCityGIS,QL-D3,98106
1280920.34555556,270207.119487807,1088,Little Brook Park,14043 32nd Ave NE,North,Yes,2023/11/20 21:00:38+00,47.73140758,-122.29423691,1280920.3455223,270207.1195306,297.0,1064.0,PLAY-LIBRPK,,,{FB869958-E28F-4023-B3F3-5619B28B5FC0},SeattleParks_SeattleCityGIS,2023/11/20 21:00:38+00,SeattleParks_SeattleCityGIS,QL-D3,98165
1277014.62502055,230035.156196728,1089,Miller Playfield,400 19th Ave E,Central,Yes,2023/11/20 21:00:38+00,47.62109268,-122.30697925,1277014.62502135,230035.15623044,373.0,1150.0,PLAY-MLPF,,,{E4540D9C-D7A6-4A0F-93C3-2526FD7C7154},SeattleParks_SeattleCityGIS,2023/11/20 21:00:38+00,SeattleParks_SeattleCityGIS,QL-D3,98122
1260849.24987106,235825.937594146,1090,12th West / West Howe Park,12th Ave West / West Howe St,Central,No,2023/11/20 21:00:38+00,47.63609742,-122.37298472,1260849.25002925,235825.93752526,281.0,,PLAY-12HOWE,,,{6247D75E-3D5E-4B14-B3FD-D04C74BEB301},SeattleParks_SeattleCityGIS,2023/11/20 21:00:38+00,SeattleParks_SeattleCityGIS,QL-D3,98119
1254287.37487148,201031.921880469,1091,Lowman Beach Park,7017 Beach Dr SW,South,No,2023/11/20 21:00:38+00,47.54036668,-122.39672777,1254287.3750346,201031.92190473,461.0,1067.0,PLAY-LBPK,,,{4999B9F1-AD0C-458C-8B57-FE729AA27167},SeattleParks_SeattleCityGIS,2023/11/20 21:00:38+00,SeattleParks_SeattleCityGIS,QL-D3,98136
1272904.55974989,202351.310645893,1092,Oxbow Park,6430 Corson Ave S,South,No,2023/11/20 21:00:38+00,47.54499491,-122.32147142,1272904.55985427,202351.31057358,4416.0,1934.0,PLAY-OXBOWPK,,,{55A8BA9E-E67C-4D1D-8E17-4EB2177AD089},SeattleParks_SeattleCityGIS,2023/11/20 21:00:38+00,SeattleParks_SeattleCityGIS,QL-D3,98108
1280264.87508172,232374.187607899,1093,Washington Park,2500 Lake Washington Blvd. E,Central,No,2023/11/20 21:00:38+00,47.62767381,-122.29398222,1280264.87499729,232374.18749109,4486.0,2478.0,PLAY-WAPK,,,{6334F714-F643-46DB-9CA2-B97C8C750FDB},SeattleParks_SeattleCityGIS,2023/11/20 21:00:38+00,SeattleParks_SeattleCityGIS,QL-D3,98112
1265504.75007448,235657.953021973,1094,E Queen Anne Playground,1912 Warren Ave N,Central,Yes,2023/11/20 21:00:38+00,47.63589074,-122.35409195,1265504.74997456,235657.95313065,329.0,2535.0,PLAY-EQAPG,,,{92EC3697-1AB2-4E0D-B1A7-2FCECE155A73},SeattleParks_SeattleCityGIS,2023/11/20 21:00:38+00,SeattleParks_SeattleCityGIS,QL-D3,98109
1253683.12509573,256286.406187564,1095,Golden Gardens Park,8498 Seaview Pl NW,North,Yes,2023/11/20 21:00:38+00,47.69178109,-122.4037383,1253683.12503062,256286.40623701,243.0,1361.0,PLAY-GGPK,,,{6346EEE1-6ACB-498A-A1E4-3390E33B8444},SeattleParks_SeattleCityGIS,2023/11/20 21:00:38+00,SeattleParks_SeattleCityGIS,QL-D3,98017
